API VERSION: 1.2
API SOURCE: NASA/JPL Horizons API



*******************************************************************************
Ephemeris / API_USER Fri Apr  3 11:28:34 2026 Pasadena, USA      / Horizons
*******************************************************************************
Target body name: Neptune (899)                   {source: nep097_merged}
Center body name: Sun (10)                        {source: nep097_merged}
Center-site name: BODY CENTER
*******************************************************************************
Start time      : A.D. 2025-Jul-19 16:32:00.0001 TDB
Stop  time      : A.D. 2025-Jul-21 16:32:00.0001 TDB
Step-size       : 60 minutes
*******************************************************************************
Center geodetic : 0.0, 0.0, 0.0                   {E-lon(deg),Lat(deg),Alt(km)}
Center cylindric: 0.0, 0.0, 0.0                   {E-lon(deg),Dxy(km),Dz(km)}
Center radii    : 695700.0, 695700.0, 695700.0 km {Equator_a, b, pole_c}
Output units    : AU-D
Calendar mode   : Mixed Julian/Gregorian
Output type     : GEOMETRIC cartesian states
Output format   : 3 (position, velocity, LT, range, range-rate)
Reference frame : Ecliptic of J2000.0
*******************************************************************************
            JDTDB,            Calendar Date (TDB),                      X,                      Y,                      Z,                     VX,                     VY,                     VZ,                     LT,                     RG,                     RR,
**************************************************************************************************************************************************************************************************************************************************************************
$$SOE
2460877.438888890, A.D. 2025-Jul-20 22:32:00.0001,  2.988110188202795E+01,  7.891474315296063E-04, -6.886012881210667E-01, -2.789112178657845E-05,  3.158933065375864E-03, -6.450221743310482E-05,  1.726246704026166E-01,  2.988903514737286E+01, -2.631427457944942E-05,
2460877.480555557, A.D. 2025-Jul-20 23:32:00.0001,  2.988110071934598E+01,  9.207698106761574E-04, -6.886039753303029E-01, -2.791750914765286E-05,  3.158941265750393E-03, -6.448379840588977E-05,  1.726246640686129E-01,  2.988903405067412E+01, -2.632716211779466E-05,
2460877.522222223, A.D. 2025-Jul-21 00:32:00.0001,  2.988109955557753E+01,  1.052392547820681E-03, -6.886066617688819E-01, -2.794327144782288E-05,  3.158950244507014E-03, -6.446523170401466E-05,  1.726246577315825E-01,  2.988903295345131E+01, -2.633942802923312E-05,
2460877.563888890, A.D. 2025-Jul-21 01:32:00.0001,  2.988109839074890E+01,  1.184015674785728E-03, -6.886093474313926E-01, -2.796839563963223E-05,  3.158959972043054E-03, -6.444655331077025E-05,  1.726246513916765E-01,  2.988903185573061E+01, -2.635105842833727E-05,
2460877.605555557, A.D. 2025-Jul-21 02:32:00.0001,  2.988109722488699E+01,  1.315639222120955E-03, -6.886120323139709E-01, -2.799286520686156E-05,  3.158970416888057E-03, -6.442780154058596E-05,  1.726246450490498E-01,  2.988903075753885E+01, -2.636203590885213E-05,
2460877.647222223, A.D. 2025-Jul-21 03:32:00.0001,  2.988109605801951E+01,  1.447263219030117E-03, -6.886147164144012E-01, -2.801665933923334E-05,  3.158981545956246E-03, -6.440901723469975E-05,  1.726246387038621E-01,  2.988902965890365E+01, -2.637233871414659E-05,
2460877.688888890, A.D. 2025-Jul-21 04:32:00.0001,  2.988109489017511E+01,  1.578887693310350E-03, -6.886173997322234E-01, -2.803975242605860E-05,  3.158993324895003E-03, -6.439024379035991E-05,  1.726246323562788E-01,  2.988902855985368E+01, -2.638194023034407E-05,
2460877.730555557, A.D. 2025-Jul-21 05:32:00.0001,  2.988109372138363E+01,  1.710512671309096E-03, -6.886200822688362E-01, -2.806211394620176E-05,  3.159005718546454E-03, -6.437152698653946E-05,  1.726246260064726E-01,  2.988902746041881E+01, -2.639080888033671E-05,
2460877.772222223, A.D. 2025-Jul-21 06:32:00.0001,  2.988109255167627E+01,  1.842138177901885E-03, -6.886227640275884E-01, -2.808370881427224E-05,  3.159018691530039E-03, -6.435291457964078E-05,  1.726246196546239E-01,  2.988902636063030E+01, -2.639890847918271E-05,
2460877.813888890, A.D. 2025-Jul-21 07:32:00.0001,  2.988109138108575E+01,  1.973764236497620E-03, -6.886254450138491E-01, -2.810449822037917E-05,  3.159032208942253E-03, -6.433445565602493E-05,  1.726246133009224E-01,  2.988902526052100E+01, -2.640619908851273E-05,
2460877.855555557, A.D. 2025-Jul-21 08:32:00.0001,  2.988109020964650E+01,  2.105390869073885E-03, -6.886281252350461E-01, -2.812444097310863E-05,  3.159046237155924E-03, -6.431619974452825E-05,  1.726246069455682E-01,  2.988902416012553E+01, -2.641263837952661E-05,
2460877.897222223, A.D. 2025-Jul-21 09:32:00.0001,  2.988108903739468E+01,  2.237018096249608E-03, -6.886308047006605E-01, -2.814349532260004E-05,  3.159060744684979E-03, -6.429819571129194E-05,  1.726246005887711E-01,  2.988902305948023E+01, -2.641818348094794E-05,
2460877.938888890, A.D. 2025-Jul-21 10:32:00.0001,  2.988108786436813E+01,  2.368645937390995E-03, -6.886334834221738E-01, -2.816162120271149E-05,  3.159075703062102E-03, -6.428049048136356E-05,  1.726245942307514E-01,  2.988902195862324E+01, -2.642279324992060E-05,
2460877.980555557, A.D. 2025-Jul-21 11:32:00.0001,  2.988108669060630E+01,  2.500274410755766E-03, -6.886361614129584E-01, -2.817878278827137E-05,  3.159091087655639E-03, -6.426312765651339E-05,  1.726245878717385E-01,  2.988902085759429E+01, -2.642643086027782E-05,
2460878.022222223, A.D. 2025-Jul-21 12:32:00.0001,  2.988108551615002E+01,  2.631903533666717E-03, -6.886388386881102E-01, -2.819495121531616E-05,  3.159106878328830E-03, -6.424614612663851E-05,  1.726245815119704E-01,  2.988901975643458E+01, -2.642906655389194E-05,
2460878.063888890, A.D. 2025-Jul-21 13:32:00.0001,  2.988108434104110E+01,  2.763533322708798E-03, -6.886415152642251E-01, -2.821010725901256E-05,  3.159123059818718E-03, -6.422957880294066E-05,  1.726245751516907E-01,  2.988901865518628E+01, -2.643068034692086E-05,
2460878.105555557, A.D. 2025-Jul-21 14:32:00.0001,  2.988108316532192E+01,  2.895163793932610E-03, -6.886441911591273E-01, -2.822424370565421E-05,  3.159139621684108E-03, -6.421345163478479E-05,  1.726245687911465E-01,  2.988901755389219E+01, -2.643126442370609E-05,
2460878.147222223, A.D. 2025-Jul-21 15:32:00.0001,  2.988108198903487E+01,  3.026794963043664E-03, -6.886468663915680E-01, -2.823736709171154E-05,  3.159156557641524E-03, -6.419778310878520E-05,  1.726245624305852E-01,  2.988901645259514E+01, -2.643082488684668E-05,
2460878.188888890, A.D. 2025-Jul-21 16:32:00.0001,  2.988108081222178E+01,  3.158426845548202E-03, -6.886495409809154E-01, -2.824949841439573E-05,  3.159173864075486E-03, -6.418258446818792E-05,  1.726245560702508E-01,  2.988901535133739E+01, -2.642938246257439E-05,
